     3.00           N                   E                   RINEX VERSION / TYPE
BRD_USR             ESA                 20190113 081802  UTCPGM / RUN BY / DATE
 GAL   3.7000E+01  1.3672E-01  3.0518E-04  0.0000E+00       IONOSPHERIC CORR
GAUT  1.8626451492E-09-1.776356839E-15      0 2036 GSTB   0 TIME SYSTEM CORR
GPGA  8.7311491370E-11-3.108624469E-15      0 2036 GSTB   0 TIME SYSTEM CORR
                                                            END OF HEADER
E05 2019 01 13 04 40 00 1.259730197489E-04-6.536993168993E-12 0.000000000000E+00
     2.800000000000E+01-1.590625000000E+01 3.149774057875E-09 3.141038381725E+00
    -7.245689630508E-07 1.358973095194E-04 1.094862818718E-05 5.440617967606E+03
     1.680000000000E+04-1.303851604462E-08 1.120691320012E+00-2.980232238770E-08
     9.524665796562E-01 1.035625000000E+02 1.632538724351E+00-5.510229523177E-09
    -4.964492505326E-11 5.210000000000E+02 2.036000000000E+03 0.000000000000E+00
     3.120000000000E+00 0.000000000000E+00-1.396983861923E-09-1.629814505577E-09
     2.162500000000E+04 0.000000000000E+00 0.000000000000E+00 0.000000000000E+00
E07 2019 01 13 05 40 00-1.116184284911E-04-7.105427357601E-12 0.000000000000E+00
     3.400000000000E+01-4.478125000000E+01 3.250135381184E-09 2.866553160337E+00
    -2.156943082809E-06 1.373226987198E-04 1.200661063194E-05 5.440619529724E+03
     2.040000000000E+04 4.470348358154E-08 1.120690047273E+00-9.313225746155E-09
     9.524964524433E-01 7.787500000000E+01-4.574119124707E-03-5.601304745397E-09
    -1.171477368163E-10 5.210000000000E+02 2.036000000000E+03 0.000000000000E+00
     3.120000000000E+00 0.000000000000E+00 2.328306436539E-10 2.328306436539E-10
     2.162500000000E+04 0.000000000000E+00 0.000000000000E+00 0.000000000000E+00
E08 2019 01 13 05 40 00 6.424439954571E-03-7.460698725481E-12 0.000000000000E+00
     3.400000000000E+01-2.412500000000E+01 3.049412734566E-09-3.094107886356E+00
    -1.126900315285E-06 2.147392369807E-04 1.174584031105E-05 5.440624343872E+03
     2.040000000000E+04 4.284083843231E-08 1.112079721076E+00 2.793967723846E-08
     9.584393391656E-01 8.628125000000E+01 4.595065551496E-01-5.522372886140E-09
    -6.607418082628E-11 5.210000000000E+02 2.036000000000E+03 0.000000000000E+00
     3.120000000000E+00 0.000000000000E+00-8.614733815193E-09-1.001171767712E-08
     2.162500000000E+04 0.000000000000E+00 0.000000000000E+00 0.000000000000E+00
E09 2019 01 13 05 40 00 6.559790170286E-03-1.129762949859E-11 0.000000000000E+00
     3.400000000000E+01-2.921875000000E+01 3.074056618226E-09-3.716517691537E-01
    -1.482665538788E-06 2.394071780145E-04 1.017563045025E-05 5.440624914169E+03
     2.040000000000E+04 1.303851604462E-08 1.112077431609E+00 1.862645149231E-08
     9.584692938762E-01 1.209687500000E+02 9.197271752428E-02-5.529873198558E-09
    -4.785913638228E-11 5.210000000000E+02 2.036000000000E+03 0.000000000000E+00
     3.120000000000E+00 0.000000000000E+00-3.492459654808E-09-4.190951585770E-09
     2.162500000000E+04 0.000000000000E+00 0.000000000000E+00 0.000000000000E+00
E11 2019 01 13 05 30 00 5.719685868826E-03 8.100187187665E-13 0.000000000000E+00
     3.300000000000E+01 2.025000000000E+01 3.020482958096E-09 2.085537937541E+00
     1.065433025360E-06 2.777735935524E-04 5.351379513741E-06 5.440605241776E+03
     1.980000000000E+04-1.676380634308E-08-9.846410928823E-01 7.264316082001E-08
     9.819404978317E-01 2.362812500000E+02-3.437376230117E-01-5.689879863478E-09
     2.410814705824E-10 5.210000000000E+02 2.036000000000E+03 0.000000000000E+00
     3.120000000000E+00 0.000000000000E+00-1.839362084866E-08-2.002343535423E-08
     2.162500000000E+04 0.000000000000E+00 0.000000000000E+00 0.000000000000E+00
E12 2019 01 13 05 40 00 5.931153311394E-03 8.434142273472E-11 0.000000000000E+00
     3.400000000000E+01 2.275000000000E+01 2.969409402106E-09-2.816460272030E+00
     1.132488250732E-06 4.000525223091E-04 5.451962351799E-06 5.440605133057E+03
     2.040000000000E+04-5.029141902924E-08-9.846606491712E-01-2.607703208923E-08
     9.819552030843E-01 2.335625000000E+02-8.469160132685E-01-5.599876114460E-09
     2.764400862678E-10 5.210000000000E+02 2.036000000000E+03 0.000000000000E+00
     3.120000000000E+00 0.000000000000E+00-1.536682248116E-08-1.559965312481E-08
     2.162500000000E+04 0.000000000000E+00 0.000000000000E+00 0.000000000000E+00
E13 2019 01 13 05 40 00 3.816696116701E-04 4.405364961713E-13 0.000000000000E+00
     3.400000000000E+01 2.821875000000E+01 2.999410651779E-09 1.856844613603E-01
     1.361593604088E-06 3.430985379964E-04 6.351619958878E-06 5.440598884583E+03
     2.040000000000E+04 4.097819328308E-08-9.899303317147E-01 2.793967723846E-08
     9.851820653589E-01 2.173437500000E+02-1.504561938335E+00-5.666307453021E-09
     3.371569010811E-10 5.210000000000E+02 2.036000000000E+03 0.000000000000E+00
     3.120000000000E+00 4.550000000000E+02-4.656612873077E-09-5.587935447693E-09
     2.162500000000E+04 0.000000000000E+00 0.000000000000E+00 0.000000000000E+00
E14 2019 01 13 04 30 00 6.460703851189E-03-5.613287612505E-12 0.000000000000E+00
     2.700000000000E+01-1.015625000000E+01 4.576976363723E-09 2.117335603070E+00
    -7.171183824539E-07 1.662557082018E-01 5.071982741356E-06 5.289378589630E+03
     1.620000000000E+04 2.453103661537E-06-1.586614742953E+00-1.164153218269E-06
     8.826431045539E-01 1.840937500000E+02 1.457401709237E+00-5.671664819034E-09
    -2.321525272275E-11 5.210000000000E+02 2.036000000000E+03 0.000000000000E+00
     3.120000000000E+00 4.550000000000E+02 3.329478204250E-08 3.725290298462E-08
     2.162500000000E+04 0.000000000000E+00 0.000000000000E+00 0.000000000000E+00
E15 2019 01 13 05 40 00 9.231062722392E-04-1.037392394210E-12 0.000000000000E+00
     3.400000000000E+01 3.340625000000E+01 2.981909922803E-09 1.057947989517E+00
     1.560896635056E-06 3.894786350429E-04 6.062909960747E-06 5.440596992493E+03
     2.040000000000E+04 2.235174179077E-08-9.899422662004E-01 7.450580596924E-09
     9.851405097079E-01 2.233125000000E+02-1.594545887488E+00-5.650949670450E-09
     3.171560679661E-10 5.210000000000E+02 2.036000000000E+03 0.000000000000E+00
     3.120000000000E+00 4.550000000000E+02 1.396983861923E-09 1.164153218269E-09
     2.162500000000E+04 0.000000000000E+00 0.000000000000E+00 0.000000000000E+00
E18 2019 01 13 05 30 00 5.610179854557E-03-2.846434199455E-11 0.000000000000E+00
     3.300000000000E+01 2.584375000000E+01 6.951718138393E-09-5.690764992004E-01
     1.803040504456E-06 1.662846120307E-01 9.467825293541E-06 5.289321083069E+03
     1.980000000000E+04-2.149492502213E-06-1.569454833842E+00 9.872019290924E-07
     8.818269220766E-01 1.867187500000E+02 1.442027067816E+00-1.176263281801E-08
     4.710910514046E-10 5.210000000000E+02 2.036000000000E+03 0.000000000000E+00
     3.120000000000E+00 4.550000000000E+02 1.420266926289E-08 1.559965312481E-08
     2.162500000000E+04 0.000000000000E+00 0.000000000000E+00 0.000000000000E+00
E19 2019 01 13 05 40 00-9.159964974970E-06 3.126388037344E-13 0.000000000000E+00
     3.400000000000E+01-4.678125000000E+01 3.016554223020E-09-1.012173298909E+00
    -2.153217792511E-06 1.356811262667E-04 1.088343560696E-05 5.440619297028E+03
     2.040000000000E+04-1.061707735062E-07 1.117432137488E+00-5.960464477539E-08
     9.582264611783E-01 1.071562500000E+02 2.382690005174E+00-5.415939881349E-09
    -7.036007363663E-11 5.210000000000E+02 2.036000000000E+03 0.000000000000E+00
     3.120000000000E+00 0.000000000000E+00-8.614733815193E-09-8.847564458847E-09
     2.162500000000E+04 0.000000000000E+00 0.000000000000E+00 0.000000000000E+00
E21 2019 01 13 05 10 00-5.141750443727E-04-1.989519660128E-12 0.000000000000E+00
     3.100000000000E+01 1.100000000000E+01 2.923693212129E-09-5.793653790650E-01
     5.625188350677E-07 4.898745100945E-05 5.425885319710E-06 5.440621223450E+03
     1.860000000000E+04-3.725290298462E-08-3.072525350602E+00-2.235174179077E-08
     9.896840275122E-01 2.369687500000E+02 3.592000804794E-01-5.633806099209E-09
    -1.839362331110E-10 5.210000000000E+02 2.036000000000E+03 0.000000000000E+00
     3.120000000000E+00 0.000000000000E+00-2.095475792885E-09-2.561137080193E-09
     2.162500000000E+04 0.000000000000E+00 0.000000000000E+00 0.000000000000E+00
E24 2019 01 13 05 40 00 6.288663425948E-03-1.969624463527E-11 0.000000000000E+00
     3.400000000000E+01 1.012500000000E+01 2.883691545899E-09-2.881338907011E+00
     3.986060619354E-07 4.792188992724E-04 5.947425961494E-06 5.440617115021E+03
     2.040000000000E+04 1.862645149231E-09-3.066466967961E+00-5.401670932770E-08
     9.876880718241E-01 2.265937500000E+02 5.075389862474E-01-5.584875489624E-09
    -2.021512775550E-10 5.210000000000E+02 2.036000000000E+03 0.000000000000E+00
     3.120000000000E+00 0.000000000000E+00 4.284083843231E-08 4.773028194904E-08
     2.162500000000E+04 0.000000000000E+00 0.000000000000E+00 0.000000000000E+00
E25 2019 01 13 05 40 00 1.925380376633E-03-1.132605120802E-11 0.000000000000E+00
     3.400000000000E+01 7.468750000000E+00 2.826546308428E-09-1.792488737768E+00
     3.967434167862E-07 1.854060683399E-04 5.930662155151E-06 5.440625072479E+03
     2.040000000000E+04-2.980232238770E-08-3.072544362686E+00-1.862645149231E-09
     9.896893686262E-01 2.271875000000E+02-1.344524347327E+00-5.538802141913E-09
    -2.146517982518E-10 5.210000000000E+02 2.036000000000E+03 0.000000000000E+00
     3.120000000000E+00 0.000000000000E+00-1.164153218269E-09-1.629814505577E-09
     2.162500000000E+04 0.000000000000E+00 0.000000000000E+00 0.000000000000E+00
